[{"OBJECT_NAME":"HAWK-A","OBJECT_ID":"2018-099H","EPOCH":"2026-03-09T16:13:51.062880","MEAN_MOTION":15.23231043,"ECCENTRICITY":0.00342596,"INCLINATION":97.4051,"RA_OF_ASC_NODE":122.2425,"ARG_OF_PERICENTER":275.5523,"MEAN_ANOMALY":84.1807,"EPHEMERIS_TYPE":0,"CLASSIFICATION_TYPE":"U","NORAD_CAT_ID":43765,"ELEMENT_SET_NO":999,"REV_AT_EPOCH":39794,"BSTAR":0.00036104215,"MEAN_MOTION_DOT":8.617e-5,"MEAN_MOTION_DDOT":0},{"OBJECT_NAME":"STARLINK-35691","OBJECT_ID":"2025-257AA","EPOCH":"2026-03-09T16:31:25.338144","MEAN_MOTION":15.30197794,"ECCENTRICITY":9.608e-5,"INCLINATION":53.1592,"RA_OF_ASC_NODE":216.9977,"ARG_OF_PERICENTER":94.1077,"MEAN_ANOMALY":266.0034,"EPHEMERIS_TYPE":0,"CLASSIFICATION_TYPE":"U","NORAD_CAT_ID":66404,"ELEMENT_SET_NO":999,"REV_AT_EPOCH":1973,"BSTAR":0.0010394497,"MEAN_MOTION_DOT":0.00030551,"MEAN_MOTION_DDOT":0}]
