HAWK-A                  
1 43765U 18099H   26068.67628545  .00008617  00000+0  36104-3 0  9995
2 43765  97.4051 122.2425 0034260 275.5523  84.1807 15.23231043397949
STARLINK-35691          
1 66404U 25257AA  26068.68848771  .00030551  00000+0  10394-2 0  9994
2 66404  53.1592 216.9977 0000961  94.1077 266.0034 15.30197794 19739
